start=new Date('2021-10-11T00:00:00.000Z').valueOf();
sats=[{"ECCENTRICITY":"0.00011660","EPHEMERIS_TYPE":"0","RCS_SIZE":"LARGE","EPOCH":"2021-10-10T15:10:46.767072","COUNTRY_CODE":"US","INCLINATION":"53.0551","CLASSIFICATION_TYPE":"U","TLE_LINE2":"2 44922  53.0551  18.9456 0001166  88.9181 271.1941 15.06401132 97020","REV_AT_EPOCH":"9702","FILE":"3155694","DECAY_DATE":null,"MEAN_MOTION_DDOT":"0.0000000000000","ELEMENT_SET_NO":"999","REF_FRAME":"TEME","MEAN_MOTION":"15.06401132","CENTER_NAME":"EARTH","OBJECT_TYPE":"PAYLOAD","PERIAPSIS":"546.403","SITE":"AFETR","SEMIMAJOR_AXIS":"6925.345","MEAN_MOTION_DOT":"0.00000727","RA_OF_ASC_NODE":"18.9456","APOAPSIS":"548.018","BSTAR":"0.00006769100000","MEAN_ELEMENT_THEORY":"SGP4","NORAD_CAT_ID":"44922","OBJECT_ID":"2020-001J","TLE_LINE1":"1 44922U 20001J   21283.63248573  .00000727  00000-0  67691-4 0  9997","MEAN_ANOMALY":"271.1941","PERIOD":"95.592","LAUNCH_DATE":"2020-01-07","GP_ID":"186837791","ARG_OF_PERICENTER":"88.9181","TIME_SYSTEM":"UTC","OBJECT_NAME":"STARLINK-1104"},{"MEAN_MOTION":"15.06395119","OBJECT_TYPE":"PAYLOAD","CENTER_NAME":"EARTH","ELEMENT_SET_NO":"999","MEAN_MOTION_DDOT":"0.0000000000000","REF_FRAME":"TEME","REV_AT_EPOCH":"9701","DECAY_DATE":null,"FILE":"3155694","TLE_LINE2":"2 44923  53.0540  19.1287 0001130  94.7963 265.3155 15.06395119 97016","INCLINATION":"53.0540","CLASSIFICATION_TYPE":"U","COUNTRY_CODE":"US","EPOCH":"2021-10-10T14:12:24.046272","RCS_SIZE":"LARGE","ECCENTRICITY":"0.00011300","EPHEMERIS_TYPE":"0","TIME_SYSTEM":"UTC","ARG_OF_PERICENTER":"94.7963","OBJECT_NAME":"STARLINK-1106","LAUNCH_DATE":"2020-01-07","GP_ID":"186839042","MEAN_ANOMALY":"265.3155","PERIOD":"95.592","TLE_LINE1":"1 44923U 20001K   21283.59194498  .00000587  00000-0  58323-4 0  9995","OBJECT_ID":"2020-001K","NORAD_CAT_ID":"44923","APOAPSIS":"548.011","BSTAR":"0.00005832300000","MEAN_ELEMENT_THEORY":"SGP4","SITE":"AFETR","MEAN_MOTION_DOT":"0.00000587","SEMIMAJOR_AXIS":"6925.364","RA_OF_ASC_NODE":"19.1287","PERIAPSIS":"546.446"},{"EPHEMERIS_TYPE":"0","ECCENTRICITY":"0.00010750","EPOCH":"2021-10-10T13:56:27.987936","RCS_SIZE":"LARGE","COUNTRY_CODE":"US","INCLINATION":"53.0558","CLASSIFICATION_TYPE":"U","TLE_LINE2":"2 44924  53.0558  19.1707 0001075  91.3584 268.7528 15.06387431 97012","FILE":"3155694","DECAY_DATE":null,"REV_AT_EPOCH":"9701","REF_FRAME":"TEME","ELEMENT_SET_NO":"999","MEAN_MOTION_DDOT":"0.0000000000000","OBJECT_TYPE":"PAYLOAD","CENTER_NAME":"EARTH","MEAN_MOTION":"15.06387431","PERIAPSIS":"546.508","RA_OF_ASC_NODE":"19.1707","MEAN_MOTION_DOT":"-0.00000294","SITE":"AFETR","SEMIMAJOR_AXIS":"6925.387","MEAN_ELEMENT_THEORY":"SGP4","BSTAR":"-0.00000087175000","APOAPSIS":"547.997","NORAD_CAT_ID":"44924","TLE_LINE1":"1 44924U 20001L   21283.58087949 -.00000294  00000-0 -87175-6 0  9993","OBJECT_ID":"2020-001L","PERIOD":"95.593","MEAN_ANOMALY":"268.7528","GP_ID":"186839293","LAUNCH_DATE":"2020-01-07","OBJECT_NAME":"STARLINK-1111","TIME_SYSTEM":"UTC","ARG_OF_PERICENTER":"91.3584"},{"EPHEMERIS_TYPE":"0","ECCENTRICITY":"0.00013090","EPOCH":"2021-10-10T12:42:10.352736","RCS_SIZE":"LARGE","COUNTRY_CODE":"US","INCLINATION":"53.0553","CLASSIFICATION_TYPE":"U","TLE_LINE2":"2 44925  53.0553  19.4003 0001309 116.0171 244.0953 15.06393084 97006","FILE":"3155126","DECAY_DATE":null,"REV_AT_EPOCH":"9700","REF_FRAME":"TEME","ELEMENT_SET_NO":"999","MEAN_MOTION_DDOT":"0.0000000000000","CENTER_NAME":"EARTH","OBJECT_TYPE":"PAYLOAD","MEAN_MOTION":"15.06393084","PERIAPSIS":"546.328","RA_OF_ASC_NODE":"19.4003","MEAN_MOTION_DOT":"0.00000099","SITE":"AFETR","SEMIMAJOR_AXIS":"6925.370","MEAN_ELEMENT_THEORY":"SGP4","BSTAR":"0.00002553700000","APOAPSIS":"548.141","NORAD_CAT_ID":"44925","OBJECT_ID":"2020-001M","TLE_LINE1":"1 44925U 20001M   21283.52928649  .00000099  00000-0  25537-4 0  9992","MEAN_ANOMALY":"244.0953","PERIOD":"95.593","GP_ID":"186780419","LAUNCH_DATE":"2020-01-07","OBJECT_NAME":"STARLINK-1112","TIME_SYSTEM":"UTC","ARG_OF_PERICENTER":"116.0171"},{"EPHEMERIS_TYPE":"0","ECCENTRICITY":"0.00012580","RCS_SIZE":"LARGE","EPOCH":"2021-10-10T14:28:22.293120","COUNTRY_CODE":"US","CLASSIFICATION_TYPE":"U","INCLINATION":"53.0006","TLE_LINE2":"2 44926  53.0006  19.0800 0001258 106.6219 253.4907 15.05579842 97743","FILE":"3155694","DECAY_DATE":null,"REV_AT_EPOCH":"9774","REF_FRAME":"TEME","MEAN_MOTION_DDOT":"0.0000000000000","ELEMENT_SET_NO":"999","OBJECT_TYPE":"PAYLOAD","CENTER_NAME":"EARTH","MEAN_MOTION":"15.05579842","PERIAPSIS":"548.857","RA_OF_ASC_NODE":"19.0800","SEMIMAJOR_AXIS":"6927.863","SITE":"AFETR","MEAN_MOTION_DOT":"0.00000648","MEAN_ELEMENT_THEORY":"SGP4","BSTAR":"0.00006364800000","APOAPSIS":"550.600","NORAD_CAT_ID":"44926","OBJECT_ID":"2020-001N","TLE_LINE1":"1 44926U 20001N   21283.60303580  .00000648  00000-0  63648-4 0  9998","MEAN_ANOMALY":"253.4907","PERIOD":"95.644","GP_ID":"186838291","LAUNCH_DATE":"2020-01-07","OBJECT_NAME":"STARLINK-1113","ARG_OF_PERICENTER":"106.6219","TIME_SYSTEM":"UTC"},{"PERIOD":"95.592","MEAN_ANOMALY":"252.9498","TLE_LINE1":"1 44927U 20001P   21283.54032571  .00000668  00000-0  63757-4 0  9994","OBJECT_ID":"2020-001P","OBJECT_NAME":"STARLINK-1114","ARG_OF_PERICENTER":"107.1640","TIME_SYSTEM":"UTC","GP_ID":"186781421","LAUNCH_DATE":"2020-01-07","RA_OF_ASC_NODE":"19.3512","SEMIMAJOR_AXIS":"6925.343","SITE":"AFETR","MEAN_MOTION_DOT":"0.00000668","PERIAPSIS":"546.268","NORAD_CAT_ID":"44927","MEAN_ELEMENT_THEORY":"SGP4","BSTAR":"0.00006375700000","APOAPSIS":"548.149","FILE":"3155126","DECAY_DATE":null,"REV_AT_EPOCH":"9701","TLE_LINE2":"2 44927  53.0552  19.3512 0001358 107.1640 252.9498 15.06401723 97010","OBJECT_TYPE":"PAYLOAD","CENTER_NAME":"EARTH","MEAN_MOTION":"15.06401723","REF_FRAME":"TEME","MEAN_MOTION_DDOT":"0.0000000000000","ELEMENT_SET_NO":"999","RCS_SIZE":"LARGE","EPOCH":"2021-10-10T12:58:04.141344","EPHEMERIS_TYPE":"0","ECCENTRICITY":"0.00013580","CLASSIFICATION_TYPE":"U","INCLINATION":"53.0552","COUNTRY_CODE":"US"},{"PERIAPSIS":"546.369","RA_OF_ASC_NODE":"18.7800","MEAN_MOTION_DOT":"-0.00002236","SITE":"AFETR","SEMIMAJOR_AXIS":"6925.312","MEAN_ELEMENT_THEORY":"SGP4","APOAPSIS":"547.985","BSTAR":"-0.00013122000000","NORAD_CAT_ID":"44928","OBJECT_ID":"2020-001Q","TLE_LINE1":"1 44928U 20001Q   21283.66933594 -.00002236  00000-0 -13122-3 0  9998","PERIOD":"95.591","MEAN_ANOMALY":"265.8663","GP_ID":"186838794","LAUNCH_DATE":"2020-01-07","OBJECT_NAME":"STARLINK-1119","TIME_SYSTEM":"UTC","ARG_OF_PERICENTER":"94.2459","EPHEMERIS_TYPE":"0","ECCENTRICITY":"0.00011670","EPOCH":"2021-10-10T16:03:50.625216","RCS_SIZE":"LARGE","COUNTRY_CODE":"US","CLASSIFICATION_TYPE":"U","INCLINATION":"53.0565","TLE_LINE2":"2 44928  53.0565  18.7800 0001167  94.2459 265.8663 15.06411976 97030","DECAY_DATE":null,"FILE":"3155694","REV_AT_EPOCH":"9703","REF_FRAME":"TEME","ELEMENT_SET_NO":"999","MEAN_MOTION_DDOT":"0.0000000000000","CENTER_NAME":"EARTH","OBJECT_TYPE":"PAYLOAD","MEAN_MOTION":"15.06411976"},{"SITE":"AFETR","SEMIMAJOR_AXIS":"6925.362","MEAN_MOTION_DOT":"0.00002257","RA_OF_ASC_NODE":"18.8363","PERIAPSIS":"546.298","NORAD_CAT_ID":"44929","APOAPSIS":"548.157","BSTAR":"0.00017035000000","MEAN_ELEMENT_THEORY":"SGP4","PERIOD":"95.592","MEAN_ANOMALY":"251.4047","OBJECT_ID":"2020-001R","TLE_LINE1":"1 44929U 20001R   21283.65459495  .00002257  00000-0  17035-3 0  9999","ARG_OF_PERICENTER":"108.7087","TIME_SYSTEM":"UTC","OBJECT_NAME":"STARLINK-1121","LAUNCH_DATE":"2020-01-07","GP_ID":"186837542","RCS_SIZE":"LARGE","EPOCH":"2021-10-10T15:42:37.003680","EPHEMERIS_TYPE":"0","ECCENTRICITY":"0.00013420","INCLINATION":"53.0553","CLASSIFICATION_TYPE":"U","COUNTRY_CODE":"US","REV_AT_EPOCH":"9702","FILE":"3155694","DECAY_DATE":null,"TLE_LINE2":"2 44929  53.0553  18.8363 0001342 108.7087 251.4047 15.06395482 97025","MEAN_MOTION":"15.06395482","OBJECT_TYPE":"PAYLOAD","CENTER_NAME":"EARTH","MEAN_MOTION_DDOT":"0.0000000000000","ELEMENT_SET_NO":"999","REF_FRAME":"TEME"},{"COUNTRY_CODE":"US","INCLINATION":"53.0548","CLASSIFICATION_TYPE":"U","EPHEMERIS_TYPE":"0","ECCENTRICITY":"0.00011100","RCS_SIZE":"LARGE","EPOCH":"2021-10-10T16:30:22.457088","REF_FRAME":"TEME","MEAN_MOTION_DDOT":"0.0000000000000","ELEMENT_SET_NO":"999","CENTER_NAME":"EARTH","OBJECT_TYPE":"PAYLOAD","MEAN_MOTION":"15.06418880","TLE_LINE2":"2 44930  53.0548  18.7016 0001110 114.7932 245.3172 15.06418880 97034","FILE":"3155694","DECAY_DATE":null,"REV_AT_EPOCH":"9703","MEAN_ELEMENT_THEORY":"SGP4","APOAPSIS":"547.924","BSTAR":"-0.00014194000000","NORAD_CAT_ID":"44930","PERIAPSIS":"546.387","RA_OF_ASC_NODE":"18.7016","SITE":"AFETR","MEAN_MOTION_DOT":"-0.00002396","SEMIMAJOR_AXIS":"6925.291","GP_ID":"186837792","LAUNCH_DATE":"2020-01-07","OBJECT_NAME":"STARLINK-1123","ARG_OF_PERICENTER":"114.7932","TIME_SYSTEM":"UTC","TLE_LINE1":"1 44930U 20001S   21283.68775992 -.00002396  00000-0 -14194-3 0  9996","OBJECT_ID":"2020-001S","MEAN_ANOMALY":"245.3172","PERIOD":"95.591"},{"MEAN_MOTION":"15.06405698","OBJECT_TYPE":"PAYLOAD","CENTER_NAME":"EARTH","MEAN_MOTION_DDOT":"0.0000000000000","ELEMENT_SET_NO":"999","REF_FRAME":"TEME","REV_AT_EPOCH":"9776","DECAY_DATE":null,"FILE":"3155694","TLE_LINE2":"2 44931  53.0551  19.0849 0001307 102.2078 257.9058 15.06405698 97763","INCLINATION":"53.0551","CLASSIFICATION_TYPE":"U","COUNTRY_CODE":"US","RCS_SIZE":"LARGE","EPOCH":"2021-10-10T14:22:59.650464","EPHEMERIS_TYPE":"0","ECCENTRICITY":"0.00013070","ARG_OF_PERICENTER":"102.2078","TIME_SYSTEM":"UTC","OBJECT_NAME":"STARLINK-1128","LAUNCH_DATE":"2020-01-07","GP_ID":"186839043","PERIOD":"95.592","MEAN_ANOMALY":"257.9058","TLE_LINE1":"1 44931U 20001T   21283.59930151  .00001989  00000-0  15236-3 0  9990","OBJECT_ID":"2020-001T","NORAD_CAT_ID":"44931","APOAPSIS":"548.101","BSTAR":"0.00015236000000","MEAN_ELEMENT_THEORY":"SGP4","SITE":"AFETR","MEAN_MOTION_DOT":"0.00001989","SEMIMAJOR_AXIS":"6925.331","RA_OF_ASC_NODE":"19.0849","PERIAPSIS":"546.291"}];
